[{"OBJECT_NAME":"239ALFEROV (RS61S)","OBJECT_ID":"2025-155F","EPOCH":"2026-03-09T21:46:33.382848","MEAN_MOTION":15.29933217,"ECCENTRICITY":0.00084878,"INCLINATION":97.4469,"RA_OF_ASC_NODE":37.6373,"ARG_OF_PERICENTER":151.5904,"MEAN_ANOMALY":208.58,"EPHEMERIS_TYPE":0,"CLASSIFICATION_TYPE":"U","NORAD_CAT_ID":64881,"ELEMENT_SET_NO":999,"REV_AT_EPOCH":6561,"BSTAR":0.00067233359,"MEAN_MOTION_DOT":0.00019457,"MEAN_MOTION_DDOT":0},{"OBJECT_NAME":"STARLINK-35707","OBJECT_ID":"2025-265T","EPOCH":"2026-03-09T22:52:31.893888","MEAN_MOTION":15.27597655,"ECCENTRICITY":0.00023383,"INCLINATION":43.0035,"RA_OF_ASC_NODE":276.451,"ARG_OF_PERICENTER":244.6941,"MEAN_ANOMALY":115.3669,"EPHEMERIS_TYPE":0,"CLASSIFICATION_TYPE":"U","NORAD_CAT_ID":66533,"ELEMENT_SET_NO":999,"REV_AT_EPOCH":1715,"BSTAR":0.0012111947,"MEAN_MOTION_DOT":0.00033237,"MEAN_MOTION_DDOT":0}]
